TDRS 3                  
1 19548U 88091B   25107.02435706 -.00000291  00000+0  00000+0 0  9996
2 19548  12.9284 343.8371 0039463 348.5069 192.5972  1.00263337121110
HST                     
1 20580U 90037B   25108.16509784  .00008664  00000+0  33399-3 0  9993
2 20580  28.4670  91.5512 0002138 148.0613 212.0111 15.24500810723774
TDRS 5                  
1 21639U 91054B   25107.32841252  .00000090  00000+0  00000+0 0  9999
2 21639  14.1231 356.9019 0003857  25.4776 166.0759  0.99953939123446
TDRS 6                  
1 22314U 93003B   25107.66490911 -.00000286  00000+0  00000+0 0  9993
2 22314  14.1728   0.1921 0007274 169.5320 229.8065  1.00274793118146
TDRS 7                  
1 23613U 95035B   25107.68005321 -.00000193  00000+0  00000+0 0  9999
2 23613  13.5549 351.1177 0027821  69.9743 114.4685  1.00277383108983
ISS (ZARYA)             
1 25544U 98067A   25108.16196759  .00021659  00000+0  39076-3 0  9990
2 25544  51.6381 244.3378 0005375  52.1060 306.6862 15.49672979505843
TERRA                   
1 25994U 99068A   25108.15618288  .00000962  00000+0  20696-3 0  9998
2 25994  98.0031 168.1464 0003567 117.2326 299.2564 14.60630918347677
TDRS 8                  
1 26388U 00034A   25107.35200953  .00000104  00000+0  00000+0 0  9999
2 26388  12.0203  34.8081 0005324 267.6964 222.5066  1.00264252 90908
TIMED                   
1 26998U 01055B   25107.88248914  .00003442  00000+0  32820-3 0  9994
2 26998  74.0720  10.3538 0002076 273.9160  86.1787 14.93764235267285
AQUA                    
1 27424U 02022A   25108.15326569  .00002166  00000+0  44996-3 0  9997
2 27424  98.3732  65.7722 0001016 107.9461 308.0604 14.61147312221228
TDRS 10                 
1 27566U 02055A   25107.82335409 -.00000125  00000+0  00000+0 0  9994
2 27566   9.8010  48.3137 0007783 283.6474  62.1774  1.00674900 81969
SORCE                   
1 27651U 03004A   25107.59305090  .00006335  00000+0  50907-3 0  9994
2 27651  39.9900 163.2388 0019223 233.7131 126.1887 15.00067101207891
AURA                    
1 28376U 04026A   25107.90836168  .00002214  00000+0  46832-3 0  9998
2 28376  98.2900  57.6294 0001344  92.1264 268.0090 14.60288841104120
SWIFT                   
1 28485U 04047A   25107.06639276  .00036240  00000+0  98643-3 0  9993
2 28485  20.5531 140.7487 0005653 283.8049  76.1762 15.35706759120829
THEMIS A                
1 30580U 07004A   25106.29984327 -.00000138  00000+0  00000+0 0  9996
2 30580   5.0566 229.2313 8451933  30.0535 358.1352  0.87837765 37526
THEMIS D                
1 30797U 07004D   25107.42003872 -.00000102  00000+0  00000+0 0  9990
2 30797   0.7509 159.9906 8419667 103.5207 341.2589  0.87835884 61759
THEMIS E                
1 30798U 07004E   25107.35086413 -.00000115  00000+0  00000+0 0  9999
2 30798   2.6027 269.7837 8412389 354.5176 332.0670  0.87836877 62164
FGRST (GLAST)           
1 33053U 08029A   25107.69590718  .00006234  00000+0  26009-3 0  9997
2 33053  25.5823 271.6431 0009187   2.9813 357.0778 15.20807511930923
TDRS 11                 
1 39070U 13004A   25107.64207698  .00000091  00000+0  00000+0 0  9992
2 39070   2.9767  21.6483 0004957  23.8105 217.4725  1.00278344 42429
TDRS 12                 
1 39504U 14004A   25107.66929256 -.00000261  00000+0  00000+0 0  9998
2 39504   3.6459  10.6517 0000854 238.6787 156.3514  1.00262814 40012
GPM-CORE                
1 39574U 14009C   25107.93702913  .00013180  00000+0  28322-3 0  9993
2 39574  64.9771 292.6041 0009655 258.2510 101.7548 15.44912178632128
MMS 1                   
1 40482U 15011A   25087.50002315 -.00001275  00000+0  00000+0 0  9998
2 40482  62.3308 357.3117 8808304 157.8072  97.3983  0.28480349  1389
MMS 2                   
1 40483U 15011B   25087.50002315 -.00001275  00000+0  00000+0 0  9999
2 40483  62.2978 357.3282 8807312 157.7919  97.3692  0.28480709  1389
MMS 3                   
1 40484U 15011C   25087.33335648 -.00001290  00000+0  00000+0 0  9996
2 40484  62.3347 357.3125 8808551 157.7962  80.2556  0.28480348 16162
MMS 4                   
1 40485U 15011D   25087.50002315 -.00001275  00000+0  00000+0 0  9991
2 40485  62.3095 357.3185 8807705 157.7909  87.6207  0.28484629  1388
TDRS 13                 
1 42915U 17047A   25108.17435410 -.00000093  00000+0  00000+0 0  9992
2 42915   3.4672 351.8159 0014360 103.4965 162.4348  1.00271848 28110
NOAA 20 (JPSS-1)        
1 43013U 17073A   25108.18668444  .00000173  00000+0  10294-3 0  9995
2 43013  98.7384  47.4468 0002230  83.0204 277.1225 14.19526612384175
